AMGU-1 (AMURSAT)        
1 44394U 19038J   22030.54992389  .00004737  00000+0  25730-3 0  9991
2 44394  97.6157 359.6442 0019028 248.8469 111.0728 15.14857412142145
DOT-1                   
1 44399U 19038P   22030.80264345  .00003557  00000+0  20124-3 0  9990
2 44399  97.6220 359.0762 0022175 252.4867 107.3940 15.13519255142110
SOKRAT                  
1 44404U 19038U   22030.46156486  .00005433  00000+0  29573-3 0  9997
2 44404  97.6176 359.2626 0019277 250.3346 109.5806 15.14712033142111
LUCKY-7                 
1 44406U 19038W   22030.44815105  .00003728  00000+0  20878-3 0  9991
2 44406  97.6210 359.0174 0022025 245.4525 114.4410 15.13855527142073
D-STAR ONE (EXOCONNECT) 
1 44410U 19038AA  22030.47057143  .00007607  00000+0  39689-3 0  9999
2 44410  97.6137 359.8026 0018636 246.3868 113.5408 15.16085772142160
NARSSCUBE-2             
1 44415U 19022E   22030.49247629  .00005650  00000+0  18936-3 0  9997
2 44415  51.6420  64.3298 0010449 280.9736  79.0070 15.32386413138947
DUCHIFAT-3              
1 44854U 19089C   22030.78713390  .00001894  00000+0  15549-3 0  9995
2 44854  36.9647 195.7902 0007131 191.8095 300.7229 15.00036713117244
OPS-SAT                 
1 44878U 19092F   22030.49840576  .00004899  00000+0  24575-3 0  9997
2 44878  97.4748 215.8972 0014680  99.5445 260.7448 15.17699458117253
FLORIPASAT-1            
1 44885U 19093G   22030.75518651  .00000910  00000+0  11958-3 0  9992
2 44885  97.9087 112.8591 0013233 282.5403  77.4336 14.82594933114446
HUSKYSAT-1 (HO-107)     
1 45119U 19071J   22030.34117342  .00012217  00000+0  32372-3 0  9992
2 45119  51.6415  14.8094 0010980  34.7843 325.3857 15.38692229112067
G-SAT                   
1 45597U 98067RK  22030.12362405  .00074178  00000+0  54752-3 0  9992
2 45597  51.6346 263.5330 0003914 138.9024 221.2270 15.72311905100060
QUETZAL-1               
1 45598U 98067RL  22030.34290815  .00226091  00000+0  85404-3 0  9993
2 45598  51.6322 252.9063 0005008 198.2299 161.8526 15.86533531100158
BY70-2                  
1 45857U 20042B   22030.79967246  .00003042  00000+0  42847-3 0  9990
2 45857  97.9671 109.1108 0010845 193.9522 166.1406 14.77980354 85116
SALSAT                  
1 46495U 20068K   22030.45754414  .00001663  00000+0  12516-3 0  9998
2 46495  97.7161 331.9123 0017464  28.0509 332.1654 15.03816518 73449
NETSAT-4                
1 46504U 20068U   22030.62912109  .00001710  00000+0  13296-3 0  9994
2 46504  97.7114 330.8924 0013435  76.3923 283.8801 15.02567829 73347
NETSAT-3                
1 46505U 20068V   22030.57449632  .00002376  00000+0  18317-3 0  9993
2 46505  97.7100 330.7769 0011811  80.9166 279.3422 15.02526827 73347
NETSAT-1                
1 46506U 20068W   22030.38676588  .00001382  00000+0  10872-3 0  9999
2 46506  97.7085 330.5414 0010272  83.9482 276.2913 15.02461058 73311
NETSAT-2                
1 46507U 20068X   22030.39378956  .00000724  00000+0  59166-4 0  9998
2 46507  97.7115 330.5500 0010017  88.5212 271.7160 15.02445118 73268
BY70-3                  
1 46839U 20079N   22030.86044382  .00010307  00000+0  29163-3 0  9994
2 46839  97.2173 105.2519 0008247 106.0074   5.4973 15.36456619 69080
SPOC                    
1 46921U 98067RR  22030.23218967  .00040800  00000+0  43808-3 0  9994
2 46921  51.6383 279.3409 0002507 175.9107 184.1909 15.63359075 70214
BOBCAT-1                
1 46922U 98067RS  22030.19337669  .00088200  00000+0  65368-3 0  9992
2 46922  51.6393 271.6107 0003538 183.8959 176.2013 15.72146913 70273
NEUTRON-1               
1 46923U 98067RT  22030.52161575  .00042410  00000+0  45628-3 0  9991
2 46923  51.6388 278.2789 0002306 183.9289 176.1687 15.63290186 70285
DESCENT                 
1 46927U 98067RX  22030.77481370  .00042806  00000+0  45684-3 0  9991
2 46927  51.6388 276.9675 0002007 199.7247 160.3670 15.63492757 70224
UVSQ-SAT                
1 47438U 21006AB  22030.41759782  .00003140  00000+0  17614-3 0  9994
2 47438  97.4589  92.2980 0013352  39.7607 320.4601 15.14019667 56384
SOMP2B                  
1 47445U 21006AJ  22030.12839867  .00003204  00000+0  18071-3 0  9992
2 47445  97.4562  91.7840 0013126  44.5542 315.6743 15.13804591 56338
WARP-01                 
1 47924U 98067SA  22030.72765712  .00069532  00000+0  70246-3 0  9996
2 47924  51.6368 283.3622 0004420 204.1498 155.9290 15.64671011 50199
RSP-01                  
1 47925U 98067SB  22030.70971884  .00049890  00000+0  57775-3 0  9991
2 47925  51.6403 285.5278 0003247 155.2008 204.9143 15.61318513 50149
TAUSAT-1                
1 47926U 98067SC  22030.70927421  .00071731  00000+0  71344-3 0  9997
2 47926  51.6390 282.5024 0004238 158.8671 201.2501 15.65053264 50171
TSURU                   
1 47927U 98067SD  22030.53589686  .00041450  00000+0  50550-3 0  9997
2 47927  51.6394 287.3632 0003146 151.5658 208.5507 15.60049708 50108
STARS-EC                
1 47928U 98067SE  22030.18624837  .00077654  00000+0  74550-3 0  9998
2 47928  51.6384 285.7583 0004929 204.3376 155.7387 15.65903620 50071
MAYA-2                  
1 47929U 98067SF  22030.53163446  .00041355  00000+0  50474-3 0  9990
2 47929  51.6397 287.3327 0003184 149.0587 211.0594 15.60030149 50068
HIROGARI (OPUSAT-II)    
1 47930U 98067SG  22030.78217179  .00088762  00000+0  81330-3 0  9990
2 47930  51.6372 281.4988 0004054 161.6112 198.5032 15.67011707 50200
GUARANISAT-1            
1 47931U 98067SH  22029.94973854  .00039639  00000+0  48356-3 0  9996
2 47931  51.6409 290.2052 0003254 146.8326 213.2871 15.60061958 50016
DIY-1 (ARDUIQUBE)       
1 47963U 21022AH  22030.68654930  .00009552  00000+0  60102-3 0  9996
2 47963  97.5449 294.0204 0016972 246.6806 113.2637 15.09294676 46144
